{"fetched_at":"2026-03-29T16:36:15Z","count":15609,"tles":[{"name":"STARLINK-1661","line1":"1 46355U 20062AG  26087.79953524  .00056222  00000+0  18480-2 0  9999","line2":"2 46355  53.1593 282.1948 0000327  73.3104 286.7933 15.31029041307324","category":"Starlink"}]}